SL-16 R/B               
1 23405U 94077B   26157.45049038 -.00000294  00000+0 -12557-3 0  9994
2 23405  70.9807 165.7509 0002590 334.2069  25.8925 14.15574258628798
ARIANE 40+ R/B          
1 23561U 95021B   26157.48173571  .00000294  00000+0  10763-3 0  9995
2 23561  98.4412 227.7109 0005801 228.5239 142.3424 14.39827556632023
SL-16 R/B               
1 23705U 95058B   26157.53243523 -.00000166  00000+0 -60418-4 0  9999
2 23705  71.0216 353.7298 0013302 334.8209  25.2264 14.15505442580422
SL-16 R/B               
1 24298U 96051B   26157.26676444  .00000136  00000+0  10042-3 0  9995
2 24298  70.7634 347.7615 0014527 353.5765   6.5166 14.12442411534156
ORBVIEW 2 (SEASTAR)     
1 24883U 97037A   26157.21657493  .00000294  00000+0  11833-3 0  9992
2 24883  98.8681 323.9323 0002840 139.2437 220.8961 14.35547902521179
SL-16 R/B               
1 25400U 98043G   26157.62806239  .00000060  00000+0  44087-4 0  9994
2 25400  98.8359 111.6968 0010825 113.9621 246.2693 14.26066813451667
SL-16 R/B               
1 25407U 98045B   26157.28788254  .00000142  00000+0  95920-4 0  9994
2 25407  71.0121 355.2522 0009544 254.6357 105.3712 14.16204278439640
ISS (ZARYA)             
1 25544U 98067A   26157.35357176  .00060395  00000+0  10711-2 0  9992
2 25544  51.6350 353.7261 0006543 141.0671 219.0790 15.49636045636845
CZ-4B R/B               
1 25732U 99025C   26157.40510288  .00000051  00000+0  45124-4 0  9998
2 25732  98.6488 199.5146 0038263  89.7697 281.6742 14.18281698400740
OKEAN-O                 
1 25860U 99039A   26157.39834749  .00000723  00000+0  10142-3 0  9991
2 25860  97.9319 216.3196 0001859  79.7931 280.3491 14.80454599447515
SL-16 R/B               
1 25861U 99039B   26157.43017513  .00000560  00000+0  77580-4 0  9998
2 25861  97.9842 216.3233 0014101 334.5180  25.5336 14.81834742450009
DELTA 2 R/B             
1 25876U 99041E   26157.13375074  .00000770  00000+0  16167-3 0  9999
2 25876  51.7661 307.9500 0501016 249.3418 105.3121 14.11995802375529
HELIOS 1B               
1 25977U 99064A   26157.48658764  .00001685  00000+0  19004-3 0  9993
2 25977  98.1622  62.3164 0002312 106.8323 253.3146 14.87978381698466
TERRA                   
1 25994U 99068A   26157.54892369  .00000441  00000+0  98842-4 0  9991
2 25994  97.9461 207.5165 0000860 245.0327 224.6413 14.61094823408057
SL-16 R/B               
1 26070U 00006B   26157.60888316 -.00000146  00000+0 -49904-4 0  9994
2 26070  71.0034 270.8671 0015005  39.8042 320.4179 14.15837134361148
TITAN 4B R/B            
1 26474U 00047B   26157.59568885  .00003709  00000+0  22973-3 0  9993
2 26474  67.9876 150.3846 0045487 297.7754  61.8787 15.10135514406333
ENVISAT                 
1 27386U 02009A   26157.48304270  .00000113  00000+0  50473-4 0  9993
2 27386  98.3830 109.0406 0001329  91.0694  27.1263 14.39062351271941
IDEFIX & ARIANE 42P R/B 
1 27422U 02021B   26157.57206555  .00000248  00000+0  11090-3 0  9995
2 27422  98.5941  95.1704 0010642 288.5791  71.4235 14.31077154256732
AQUA                    
1 27424U 02022A   26157.58401081  .00000917  00000+0  19217-3 0  9992
2 27424  98.4272 126.6555 0001519  55.2822   6.2406 14.62142109281721
CZ-4B R/B               
1 27432U 02024C   26157.40885883  .00000056  00000+0  51645-4 0  9996
2 27432  98.8704 210.2984 0050999 130.2439 243.1399 14.14562665241789
MIDORI II (ADEOS-II)    
1 27597U 02056A   26157.49780335  .00000306  00000+0  13785-3 0  9998
2 27597  98.7873 116.6671 0002207  91.5740 268.5694 14.29343794222988
H-2A R/B                
1 27601U 02056E   26157.63582756  .00000231  00000+0  95605-4 0  9996
2 27601  98.3308 114.6950 0068875 256.5066 277.2195 14.33817570226854
CZ-4B R/B               
1 28059U 03049C   26157.50408471  .00000363  00000+0  94891-4 0  9996
2 28059  98.6895 155.9253 0047359 321.8794  37.9055 14.55093009199513
CZ-2C R/B               
1 28222U 04012C   26157.37962722  .00122901  00000+0  75160-3 0  9998
2 28222  97.7089 231.8036 0008825 332.1519  27.9272 15.76941093218193
SL-16 R/B               
1 28353U 04021B   26157.41307141 -.00000166  00000+0 -61348-4 0  9990
2 28353  71.0024  46.3008 0007476 267.0875  92.9392 14.14612822135382
CZ-4B R/B               
1 28415U 04035C   26157.41061781  .00010433  00000+0  35138-3 0  9994
2 28415  97.3371 190.6067 0031254  16.6629 343.5631 15.30466479193470
CZ-2C R/B               
1 28480U 04046B   26157.46363601  .00000101  00000+0  53246-4 0  9991
2 28480  98.1952  66.9139 0138101 252.2085 106.3988 14.27024257121160
ARIANE 5 R/B            
1 28499U 04049H   26157.48730419  .00000880  00000+0  10264-3 0  9997
2 28499  98.2715 329.3275 0085045  63.7498 297.2425 14.85434120158979
CZ-2D R/B               
1 28738U 05024B   26157.50460597  .00066292  00000+0  58724-3 0  9999
2 28738  97.3493 176.4090 0005147  75.9226 284.2607 15.68390128153663
ALOS (DAICHI)           
1 28931U 06002A   26157.47219561  .00001243  00000+0  21551-3 0  9993
2 28931  98.1318 113.0734 0001847  63.0548 297.0846 14.70029043 86527
