OBJECT_NAME,OBJECT_ID,EPOCH,MEAN_MOTION,ECCENTRICITY,INCLINATION,RA_OF_ASC_NODE,ARG_OF_PERICENTER,MEAN_ANOMALY,EPHEMERIS_TYPE,CLASSIFICATION_TYPE,NORAD_CAT_ID,ELEMENT_SET_NO,REV_AT_EPOCH,BSTAR,MEAN_MOTION_DOT,MEAN_MOTION_DDOT
SL-16 R/B,1994-077B,2026-06-06T10:48:42.368832,14.15574258,.00025901,70.9807,165.7509,334.2069,25.8925,0,U,23405,999,62879,-.12557031E-3,-.294E-5,0
ARIANE 40+ R/B,1995-021B,2026-06-06T11:33:41.965344,14.39827556,.00058012,98.4412,227.7109,228.5239,142.3424,0,U,23561,999,63202,.10762818E-3,.294E-5,0
SL-16 R/B,1995-058B,2026-06-06T12:46:42.403872,14.15505442,.00133029,71.0216,353.7298,334.8209,25.2264,0,U,23705,999,58042,-.60417715E-4,-.166E-5,0
SL-16 R/B,1996-051B,2026-06-06T06:24:08.447616,14.12442411,.00145275,70.7634,347.7615,353.5765,6.5166,0,U,24298,999,53415,.10041665E-3,.136E-5,0
ORBVIEW 2 (SEASTAR),1997-037A,2026-06-06T05:11:52.073952,14.35547902,.00028401,98.8681,323.9323,139.2437,220.8961,0,U,24883,999,52117,.11832729E-3,.294E-5,0
SL-16 R/B,1998-043G,2026-06-06T15:04:24.590496,14.26066813,.00108256,98.8359,111.6968,113.9621,246.2693,0,U,25400,999,45166,.44086741E-4,.6E-6,0
SL-16 R/B,1998-045B,2026-06-06T06:54:33.051456,14.16204278,.00095442,71.0121,355.2522,254.6357,105.3712,0,U,25407,999,43964,.95919543E-4,.142E-5,0
ISS (ZARYA),1998-067A,2026-06-06T08:29:08.600064,15.49636045,.00065437,51.6350,353.7261,141.0671,219.0790,0,U,25544,999,63684,.10710771E-2,.60395E-3,0
CZ-4B R/B,1999-025C,2026-06-06T09:43:20.888832,14.18281698,.00382634,98.6488,199.5146,89.7697,281.6742,0,U,25732,999,40074,.45124377E-4,.51E-6,0
OKEAN-O,1999-039A,2026-06-06T09:33:37.223136,14.80454599,.00018598,97.9319,216.3196,79.7931,280.3491,0,U,25860,999,44751,.10142006E-3,.723E-5,0
SL-16 R/B,1999-039B,2026-06-06T10:19:27.131232,14.81834742,.00141015,97.9842,216.3233,334.5180,25.5336,0,U,25861,999,45000,.77580088E-4,.56E-5,0
DELTA 2 R/B,1999-041E,2026-06-06T03:12:36.063936,14.11995802,.0501016,51.7661,307.9500,249.3418,105.3121,0,U,25876,999,37552,.16167E-3,.77E-5,0
HELIOS 1B,1999-064A,2026-06-06T11:40:41.172096,14.87978381,.00023123,98.1622,62.3164,106.8323,253.3146,0,U,25977,999,69846,.19003752E-3,.1685E-4,0
TERRA,1999-068A,2026-06-06T13:10:27.006816,14.61094823,.00008603,97.9461,207.5165,245.0327,224.6413,0,U,25994,999,40805,.98842388E-4,.441E-5,0
SL-16 R/B,2000-006B,2026-06-06T14:36:47.505024,14.15837134,.00150057,71.0034,270.8671,39.8042,320.4179,0,U,26070,999,36114,-.49904023E-4,-.146E-5,0
TITAN 4B R/B,2000-047B,2026-06-06T14:17:47.516640,15.10135514,.00454878,67.9876,150.3846,297.7754,61.8787,0,U,26474,999,40633,.2297299E-3,.3709E-4,0
ENVISAT,2002-009A,2026-06-06T11:35:34.889280,14.39062351,.00013298,98.3830,109.0406,91.0694,27.1263,0,U,27386,999,27194,.50473411E-4,.113E-5,0
IDEFIX & ARIANE 42P R/B,2002-021B,2026-06-06T13:43:46.463520,14.31077154,.00106423,98.5941,95.1704,288.5791,71.4235,0,U,27422,999,25673,.11089665E-3,.248E-5,0
AQUA,2002-022A,2026-06-06T14:00:58.533984,14.62142109,.00015198,98.4272,126.6555,55.2822,6.2406,0,U,27424,999,28172,.19217307E-3,.917E-5,0
CZ-4B R/B,2002-024C,2026-06-06T09:48:45.402912,14.14562665,.00509993,98.8704,210.2984,130.2439,243.1399,0,U,27432,999,24178,.51645013E-4,.56E-6,0
MIDORI II (ADEOS-II),2002-056A,2026-06-06T11:56:50.209440,14.29343794,.00022071,98.7873,116.6671,91.5740,268.5694,0,U,27597,999,22298,.13785032E-3,.306E-5,0
H-2A R/B,2002-056E,2026-06-06T15:15:35.501184,14.33817570,.00688758,98.3308,114.6950,256.5066,277.2195,0,U,27601,999,22685,.95605466E-4,.231E-5,0
CZ-4B R/B,2003-049C,2026-06-06T12:05:52.918944,14.55093009,.00473599,98.6895,155.9253,321.8794,37.9055,0,U,28059,999,19951,.94891125E-4,.363E-5,0
CZ-2C R/B,2004-012C,2026-06-06T09:06:39.791808,15.76941093,.00088254,97.7089,231.8036,332.1519,27.9272,0,U,28222,999,21819,.75160432E-3,.122901E-2,0
SL-16 R/B,2004-021B,2026-06-06T09:54:49.369824,14.14612822,.00074769,71.0024,46.3008,267.0875,92.9392,0,U,28353,999,13538,-.61348062E-4,-.166E-5,0
CZ-4B R/B,2004-035C,2026-06-06T09:51:17.378784,15.30466479,.00312541,97.3371,190.6067,16.6629,343.5631,0,U,28415,999,19347,.351377E-3,.10433E-3,0
CZ-2C R/B,2004-046B,2026-06-06T11:07:38.151264,14.27024257,.01381014,98.1952,66.9139,252.2085,106.3988,0,U,28480,999,12116,.53245884E-4,.101E-5,0
ARIANE 5 R/B,2004-049H,2026-06-06T11:41:43.082016,14.85434120,.00850452,98.2715,329.3275,63.7498,297.2425,0,U,28499,999,15897,.10264291E-3,.88E-5,0
CZ-2D R/B,2005-024B,2026-06-06T12:06:37.955808,15.68390128,.00051472,97.3493,176.4090,75.9226,284.2607,0,U,28738,999,15366,.58723517E-3,.66292E-3,0
ALOS (DAICHI),2006-002A,2026-06-06T11:19:57.700704,14.70029043,.0001847,98.1318,113.0734,63.0548,297.0846,0,U,28931,999,8652,.21550934E-3,.1243E-4,0
